HST                     
1 20580U 90037B   24180.56110074  .00008761  00000+0  41090-3 0  9991
2 20580  28.4680 268.9199 0002886 150.6333 209.4422 15.17898132678766
